start=new Date('2022-12-29T00:00:00.000Z').valueOf();
sats=[{"MEAN_MOTION_DOT":"-0.00000350","TIME_SYSTEM":"UTC","TLE_LINE2":"2 47581  53.0545 200.6248 0000877 131.8874 228.2190 15.06384499105172","ARG_OF_PERICENTER":"131.8874","BSTAR":"-0.00000465280000","CLASSIFICATION_TYPE":"U","RA_OF_ASC_NODE":"200.6248","CENTER_NAME":"EARTH","SITE":"AFETR","COUNTRY_CODE":"US","EPHEMERIS_TYPE":"0","MEAN_ANOMALY":"228.2190","APOAPSIS":"547.868","EPOCH":"2022-12-28T15:49:52.363776","PERIAPSIS":"546.654","TLE_LINE1":"1 47581U 21009AK  22362.65963384 -.00000350  00000-0 -46528-5 0  9996","GP_ID":"221694902","PERIOD":"95.593","NORAD_CAT_ID":"47581","RCS_SIZE":"LARGE","OBJECT_TYPE":"PAYLOAD","OBJECT_NAME":"STARLINK-1984","MEAN_ELEMENT_THEORY":"SGP4","DECAY_DATE":null,"REV_AT_EPOCH":"10517","MEAN_MOTION":"15.06384499","INCLINATION":"53.0545","MEAN_MOTION_DDOT":"0.0000000000000","ELEMENT_SET_NO":"999","OBJECT_ID":"2021-009AK","FILE":"3725038","REF_FRAME":"TEME","ECCENTRICITY":"0.00008770","LAUNCH_DATE":"2021-02-04","SEMIMAJOR_AXIS":"6925.396"},{"PERIOD":"95.592","NORAD_CAT_ID":"47582","RCS_SIZE":"LARGE","OBJECT_TYPE":"PAYLOAD","OBJECT_NAME":"STARLINK-1986","REV_AT_EPOCH":"10490","MEAN_ELEMENT_THEORY":"SGP4","DECAY_DATE":null,"MEAN_MOTION":"15.06401142","MEAN_MOTION_DDOT":"0.0000000000000","INCLINATION":"53.0526","ELEMENT_SET_NO":"999","OBJECT_ID":"2021-009AL","REF_FRAME":"TEME","FILE":"3725038","SEMIMAJOR_AXIS":"6925.345","LAUNCH_DATE":"2021-02-04","ECCENTRICITY":"0.00015820","MEAN_MOTION_DOT":"-0.00002795","TLE_LINE2":"2 47582  53.0526 220.3846 0001582 106.4999 253.6163 15.06401142104902","TIME_SYSTEM":"UTC","ARG_OF_PERICENTER":"106.4999","CLASSIFICATION_TYPE":"U","BSTAR":"-0.00016878000000","RA_OF_ASC_NODE":"220.3846","CENTER_NAME":"EARTH","EPHEMERIS_TYPE":"0","SITE":"AFETR","COUNTRY_CODE":"US","APOAPSIS":"548.306","MEAN_ANOMALY":"253.6163","EPOCH":"2022-12-28T17:06:49.243680","PERIAPSIS":"546.114","TLE_LINE1":"1 47582U 21009AL  22362.71306995 -.00002795  00000-0 -16878-3 0  9991","GP_ID":"221693161"},{"MEAN_MOTION":"15.06396202","REV_AT_EPOCH":"10552","MEAN_ELEMENT_THEORY":"SGP4","DECAY_DATE":null,"MEAN_MOTION_DDOT":"0.0000000000000","INCLINATION":"53.0546","OBJECT_ID":"2021-009AM","ELEMENT_SET_NO":"999","LAUNCH_DATE":"2021-02-04","SEMIMAJOR_AXIS":"6925.360","ECCENTRICITY":"0.00014130","REF_FRAME":"TEME","FILE":"3724967","PERIOD":"95.592","NORAD_CAT_ID":"47583","RCS_SIZE":"LARGE","OBJECT_NAME":"STARLINK-1987","OBJECT_TYPE":"PAYLOAD","EPHEMERIS_TYPE":"0","COUNTRY_CODE":"US","SITE":"AFETR","CENTER_NAME":"EARTH","APOAPSIS":"548.204","MEAN_ANOMALY":"275.5750","TLE_LINE1":"1 47583U 21009AM  22362.75729895  .00001138  00000-0  95320-4 0  9992","PERIAPSIS":"546.247","EPOCH":"2022-12-28T18:10:30.629280","GP_ID":"221670948","MEAN_MOTION_DOT":"0.00001138","TLE_LINE2":"2 47583  53.0546 220.1922 0001413  84.5400 275.5750 15.06396202105528","TIME_SYSTEM":"UTC","BSTAR":"0.00009532000000","CLASSIFICATION_TYPE":"U","ARG_OF_PERICENTER":"84.5400","RA_OF_ASC_NODE":"220.1922"},{"APOAPSIS":"548.421","MEAN_ANOMALY":"283.1924","CENTER_NAME":"EARTH","EPHEMERIS_TYPE":"0","SITE":"AFETR","COUNTRY_CODE":"US","GP_ID":"221694161","EPOCH":"2022-12-28T15:36:36.319104","PERIAPSIS":"546.126","TLE_LINE1":"1 47585U 21009AP  22362.65042036  .00003194  00000-0  23333-3 0  9996","TLE_LINE2":"2 47585  53.0553 220.6646 0001657  76.9250 283.1924 15.06380589104892","TIME_SYSTEM":"UTC","MEAN_MOTION_DOT":"0.00003194","RA_OF_ASC_NODE":"220.6646","ARG_OF_PERICENTER":"76.9250","CLASSIFICATION_TYPE":"U","BSTAR":"0.00023333000000","INCLINATION":"53.0553","MEAN_MOTION_DDOT":"0.0000000000000","REV_AT_EPOCH":"10489","DECAY_DATE":null,"MEAN_ELEMENT_THEORY":"SGP4","MEAN_MOTION":"15.06380589","REF_FRAME":"TEME","FILE":"3725038","LAUNCH_DATE":"2021-02-04","SEMIMAJOR_AXIS":"6925.408","ECCENTRICITY":"0.00016570","ELEMENT_SET_NO":"999","OBJECT_ID":"2021-009AP","NORAD_CAT_ID":"47585","PERIOD":"95.593","OBJECT_TYPE":"PAYLOAD","OBJECT_NAME":"STARLINK-1989","RCS_SIZE":"LARGE"},{"PERIOD":"95.592","NORAD_CAT_ID":"47586","RCS_SIZE":"LARGE","OBJECT_NAME":"STARLINK-1990","OBJECT_TYPE":"PAYLOAD","MEAN_MOTION":"15.06405833","DECAY_DATE":null,"MEAN_ELEMENT_THEORY":"SGP4","REV_AT_EPOCH":"10450","MEAN_MOTION_DDOT":"0.0000000000000","INCLINATION":"53.0549","OBJECT_ID":"2021-009AQ","ELEMENT_SET_NO":"999","ECCENTRICITY":"0.00015880","SEMIMAJOR_AXIS":"6925.331","LAUNCH_DATE":"2021-02-04","FILE":"3725038","REF_FRAME":"TEME","MEAN_MOTION_DOT":"0.00001581","TIME_SYSTEM":"UTC","TLE_LINE2":"2 47586  53.0549 244.0201 0001588  68.5063 291.6095 15.06405833104508","BSTAR":"0.00012501000000","CLASSIFICATION_TYPE":"U","ARG_OF_PERICENTER":"68.5063","RA_OF_ASC_NODE":"244.0201","COUNTRY_CODE":"US","SITE":"AFETR","EPHEMERIS_TYPE":"0","CENTER_NAME":"EARTH","MEAN_ANOMALY":"291.6095","APOAPSIS":"548.295","TLE_LINE1":"1 47586U 21009AQ  22361.90399727  .00001581  00000-0  12501-3 0  9999","EPOCH":"2022-12-27T21:41:45.364128","PERIAPSIS":"546.096","GP_ID":"221694403"},{"OBJECT_NAME":"STARLINK-1991","OBJECT_TYPE":"PAYLOAD","RCS_SIZE":"LARGE","NORAD_CAT_ID":"47587","PERIOD":"95.592","SEMIMAJOR_AXIS":"6925.364","LAUNCH_DATE":"2021-02-04","ECCENTRICITY":"0.00013130","REF_FRAME":"TEME","FILE":"3725038","OBJECT_ID":"2021-009AR","ELEMENT_SET_NO":"999","MEAN_MOTION_DDOT":"0.0000000000000","INCLINATION":"53.0523","MEAN_MOTION":"15.06394986","REV_AT_EPOCH":"10504","MEAN_ELEMENT_THEORY":"SGP4","DECAY_DATE":null,"RA_OF_ASC_NODE":"210.4694","BSTAR":"0.00003837800000","CLASSIFICATION_TYPE":"U","ARG_OF_PERICENTER":"89.1294","TLE_LINE2":"2 47587  53.0523 210.4694 0001313  89.1294 270.9845 15.06394986105044","TIME_SYSTEM":"UTC","MEAN_MOTION_DOT":"0.00000290","GP_ID":"221693661","TLE_LINE1":"1 47587U 21009AR  22362.69556322  .00000290  00000-0  38378-4 0  9990","PERIAPSIS":"546.320","EPOCH":"2022-12-28T16:41:36.662208","APOAPSIS":"548.138","MEAN_ANOMALY":"270.9845","EPHEMERIS_TYPE":"0","SITE":"AFETR","COUNTRY_CODE":"US","CENTER_NAME":"EARTH"},{"RCS_SIZE":"LARGE","OBJECT_TYPE":"PAYLOAD","OBJECT_NAME":"STARLINK-1993","PERIOD":"95.592","NORAD_CAT_ID":"47588","ELEMENT_SET_NO":"999","OBJECT_ID":"2021-009AS","FILE":"3724967","REF_FRAME":"TEME","ECCENTRICITY":"0.00011520","LAUNCH_DATE":"2021-02-04","SEMIMAJOR_AXIS":"6925.357","MEAN_ELEMENT_THEORY":"SGP4","DECAY_DATE":null,"REV_AT_EPOCH":"10552","MEAN_MOTION":"15.06397292","INCLINATION":"53.0557","MEAN_MOTION_DDOT":"0.0000000000000","ARG_OF_PERICENTER":"100.0808","BSTAR":"0.00009073900000","CLASSIFICATION_TYPE":"U","RA_OF_ASC_NODE":"220.1916","MEAN_MOTION_DOT":"0.00001070","TIME_SYSTEM":"UTC","TLE_LINE2":"2 47588  53.0557 220.1916 0001152 100.0808 260.0311 15.06397292105526","EPOCH":"2022-12-28T18:05:12.425856","PERIAPSIS":"546.424","TLE_LINE1":"1 47588U 21009AS  22362.75361604  .00001070  00000-0  90739-4 0  9991","GP_ID":"221670867","CENTER_NAME":"EARTH","COUNTRY_CODE":"US","SITE":"AFETR","EPHEMERIS_TYPE":"0","MEAN_ANOMALY":"260.0311","APOAPSIS":"548.020"},{"MEAN_ANOMALY":"278.5559","APOAPSIS":"548.303","CENTER_NAME":"EARTH","SITE":"AFETR","COUNTRY_CODE":"US","EPHEMERIS_TYPE":"0","GP_ID":"221694661","EPOCH":"2022-12-28T15:20:39.446880","PERIAPSIS":"546.131","TLE_LINE1":"1 47589U 21009AT  22362.63934545 -.00001010  00000-0 -48914-4 0  9993","TIME_SYSTEM":"UTC","TLE_LINE2":"2 47589  53.0531 220.7227 0001568  81.5608 278.5559 15.06398922104890","MEAN_MOTION_DOT":"-0.00001010","RA_OF_ASC_NODE":"220.7227","ARG_OF_PERICENTER":"81.5608","BSTAR":"-0.00004891400000","CLASSIFICATION_TYPE":"U","MEAN_MOTION_DDOT":"0.0000000000000","INCLINATION":"53.0531","MEAN_ELEMENT_THEORY":"SGP4","DECAY_DATE":null,"REV_AT_EPOCH":"10489","MEAN_MOTION":"15.06398922","FILE":"3725038","REF_FRAME":"TEME","ECCENTRICITY":"0.00015680","LAUNCH_DATE":"2021-02-04","SEMIMAJOR_AXIS":"6925.352","ELEMENT_SET_NO":"999","OBJECT_ID":"2021-009AT","NORAD_CAT_ID":"47589","PERIOD":"95.592","OBJECT_TYPE":"PAYLOAD","OBJECT_NAME":"STARLINK-1994","RCS_SIZE":"LARGE"},{"GP_ID":"221670940","TLE_LINE1":"1 47590U 21009AU  22362.76282688  .00000361  00000-0  43122-4 0  9995","EPOCH":"2022-12-28T18:18:28.242432","PERIAPSIS":"546.306","APOAPSIS":"548.161","MEAN_ANOMALY":"261.2749","EPHEMERIS_TYPE":"0","SITE":"AFETR","COUNTRY_CODE":"US","CENTER_NAME":"EARTH","RA_OF_ASC_NODE":"240.1651","BSTAR":"0.00004312200000","CLASSIFICATION_TYPE":"U","ARG_OF_PERICENTER":"98.8392","TLE_LINE2":"2 47590  53.0535 240.1651 0001339  98.8392 261.2749 15.06393491105235","TIME_SYSTEM":"UTC","MEAN_MOTION_DOT":"0.00000361","LAUNCH_DATE":"2021-02-04","SEMIMAJOR_AXIS":"6925.369","ECCENTRICITY":"0.00013390","REF_FRAME":"TEME","FILE":"3724967","OBJECT_ID":"2021-009AU","ELEMENT_SET_NO":"999","INCLINATION":"53.0535","MEAN_MOTION_DDOT":"0.0000000000000","MEAN_MOTION":"15.06393491","REV_AT_EPOCH":"10523","MEAN_ELEMENT_THEORY":"SGP4","DECAY_DATE":null,"OBJECT_NAME":"STARLINK-1995","OBJECT_TYPE":"PAYLOAD","RCS_SIZE":"LARGE","NORAD_CAT_ID":"47590","PERIOD":"95.593"},{"RA_OF_ASC_NODE":"220.1347","CLASSIFICATION_TYPE":"U","BSTAR":"-0.00003783100000","ARG_OF_PERICENTER":"110.8564","TIME_SYSTEM":"UTC","TLE_LINE2":"2 47591  53.0551 220.1347 0001638 110.8564 249.2601 15.06391829105519","MEAN_MOTION_DOT":"-0.00000845","GP_ID":"221670866","TLE_LINE1":"1 47591U 21009AV  22362.76835914 -.00000845  00000-0 -37831-4 0  9991","EPOCH":"2022-12-28T18:26:26.229696","PERIAPSIS":"546.104","MEAN_ANOMALY":"249.2601","APOAPSIS":"548.373","SITE":"AFETR","COUNTRY_CODE":"US","EPHEMERIS_TYPE":"0","CENTER_NAME":"EARTH","OBJECT_NAME":"STARLINK-1996","OBJECT_TYPE":"PAYLOAD","RCS_SIZE":"LARGE","NORAD_CAT_ID":"47591","PERIOD":"95.593","ECCENTRICITY":"0.00016380","SEMIMAJOR_AXIS":"6925.374","LAUNCH_DATE":"2021-02-04","FILE":"3724967","REF_FRAME":"TEME","OBJECT_ID":"2021-009AV","ELEMENT_SET_NO":"999","MEAN_MOTION_DDOT":"0.0000000000000","INCLINATION":"53.0551","MEAN_MOTION":"15.06391829","DECAY_DATE":null,"MEAN_ELEMENT_THEORY":"SGP4","REV_AT_EPOCH":"10551"}];
